[{"OBJECT_NAME":"STARLINK-30240","OBJECT_ID":"2023-102A","EPOCH":"2026-03-09T22:00:01.999584","MEAN_MOTION":15.19463354,"ECCENTRICITY":9.931e-5,"INCLINATION":42.9994,"RA_OF_ASC_NODE":246.9127,"ARG_OF_PERICENTER":289.6396,"MEAN_ANOMALY":268.9521,"EPHEMERIS_TYPE":0,"CLASSIFICATION_TYPE":"U","NORAD_CAT_ID":57404,"ELEMENT_SET_NO":999,"REV_AT_EPOCH":567,"BSTAR":0.045670367,"MEAN_MOTION_DOT":0.01065995,"MEAN_MOTION_DDOT":0},{"OBJECT_NAME":"KUIPER-00266","OBJECT_ID":"2026-030AB","EPOCH":"2026-03-08T21:54:37.698048","MEAN_MOTION":15.30874235,"ECCENTRICITY":0.0022313,"INCLINATION":51.8807,"RA_OF_ASC_NODE":223.5904,"ARG_OF_PERICENTER":72.5291,"MEAN_ANOMALY":287.8129,"EPHEMERIS_TYPE":0,"CLASSIFICATION_TYPE":"U","NORAD_CAT_ID":67789,"ELEMENT_SET_NO":999,"REV_AT_EPOCH":496,"BSTAR":0.00098219753,"MEAN_MOTION_DOT":0.00029701,"MEAN_MOTION_DDOT":0}]
